{
  "type": "FeatureCollection",
  "features": [
    {
      "type": "Feature",
      "properties": {
        "norad_id": 66647,
        "name": "COSMOS 2597 (RODNIK-S 22)",
        "group": "last-30-days",
        "lat": 65.66482505073563,
        "lon": 80.26022187924104,
        "alt_km": 1496.3346921503835,
        "timestamp": "2025-12-27T15:27:09.829036+00:00",
        "meta_object_name": "COSMOS 2597 (RODNIK-S 22)",
        "meta_object_id": "2025-273A",
        "meta_epoch": "2025-12-26T19:30:39.240288",
        "meta_mean_motion": 12.41952314,
        "meta_eccentricity": 0.00075998,
        "meta_inclination": 82.4993,
        "meta_ra_of_asc_node": 277.7108,
        "meta_arg_of_pericenter": 252.7737,
        "meta_mean_anomaly": 107.251,
        "meta_ephemeris_type": 0,
        "meta_classification_type": "U",
        "meta_norad_cat_id": 66647,
        "meta_element_set_no": 999,
        "meta_rev_at_epoch": 388,
        "meta_bstar": 9.9658941e-05,
        "meta_mean_motion_dot": 2.3e-07,
        "meta_mean_motion_ddot": 0,
        "tle_line1": "1 66647U 25273A   25360.81295417  .00000023  00000+0  99659-4 0  9997",
        "tle_line2": "2 66647  82.4993 277.7108 0007599 252.7737 107.2510 12.41952314  3888"
      },
      "geometry": {
        "type": "Point",
        "coordinates": [
          80.26022187924104,
          65.66482505073563
        ]
      }
    },
    {
      "type": "Feature",
      "properties": {
        "norad_id": 66648,
        "name": "COSMOS 2598 (RODNIK-S 23)",
        "group": "last-30-days",
        "lat": -37.35884423667653,
        "lon": 102.94688718925934,
        "alt_km": 1492.8910659670455,
        "timestamp": "2025-12-27T15:27:09.829046+00:00",
        "meta_object_name": "COSMOS 2598 (RODNIK-S 23)",
        "meta_object_id": "2025-273B",
        "meta_epoch": "2025-12-27T06:33:36.081792",
        "meta_mean_motion": 12.43233669,
        "meta_eccentricity": 0.00082625,
        "meta_inclination": 82.5032,
        "meta_ra_of_asc_node": 277.4084,
        "meta_arg_of_pericenter": 202.2573,
        "meta_mean_anomaly": 157.815,
        "meta_ephemeris_type": 0,
        "meta_classification_type": "U",
        "meta_norad_cat_id": 66648,
        "meta_element_set_no": 999,
        "meta_rev_at_epoch": 394,
        "meta_bstar": 5.6228556e-05,
        "meta_mean_motion_dot": 1.8e-07,
        "meta_mean_motion_ddot": 0,
        "tle_line1": "1 66648U 25273B   25361.27333428  .00000018  00000+0  56229-4 0  9994",
        "tle_line2": "2 66648  82.5032 277.4084 0008262 202.2573 157.8150 12.43233669  3945"
      },
      "geometry": {
        "type": "Point",
        "coordinates": [
          102.94688718925934,
          -37.35884423667653
        ]
      }
    },
    {
      "type": "Feature",
      "properties": {
        "norad_id": 66649,
        "name": "COSMOS 2599 (RODNIK-S 24)",
        "group": "last-30-days",
        "lat": 51.01744635656663,
        "lon": -73.40540767768928,
        "alt_km": 1501.8908662299855,
        "timestamp": "2025-12-27T15:27:09.829057+00:00",
        "meta_object_name": "COSMOS 2599 (RODNIK-S 24)",
        "meta_object_id": "2025-273C",
        "meta_epoch": "2025-12-27T05:30:07.476480",
        "meta_mean_motion": 12.41152438,
        "meta_eccentricity": 0.00063593,
        "meta_inclination": 82.505,
        "meta_ra_of_asc_node": 277.4903,
        "meta_arg_of_pericenter": 239.7365,
        "meta_mean_anomaly": 120.3085,
        "meta_ephemeris_type": 0,
        "meta_classification_type": "U",
        "meta_norad_cat_id": 66649,
        "meta_element_set_no": 999,
        "meta_rev_at_epoch": 393,
        "meta_bstar": 0.00019337081,
        "meta_mean_motion_dot": 3.6e-07,
        "meta_mean_motion_ddot": 0,
        "tle_line1": "1 66649U 25273C   25361.22925320  .00000036  00000+0  19337-3 0  9996",
        "tle_line2": "2 66649  82.5050 277.4903 0006359 239.7365 120.3085 12.41152438  3938"
      },
      "geometry": {
        "type": "Point",
        "coordinates": [
          -73.40540767768928,
          51.01744635656663
        ]
      }
    },
    {
      "type": "Feature",
      "properties": {
        "norad_id": 66650,
        "name": "BEE-1000",
        "group": "last-30-days",
        "lat": -1.4229074716134869,
        "lon": -71.24730550184857,
        "alt_km": 603.2806389819298,
        "timestamp": "2025-12-27T15:27:09.829068+00:00",
        "meta_object_name": "BEE-1000",
        "meta_object_id": "2025-274A",
        "meta_epoch": "2025-12-27T07:24:35.032320",
        "meta_mean_motion": 14.91711336,
        "meta_eccentricity": 0.00112758,
        "meta_inclination": 97.7406,
        "meta_ra_of_asc_node": 288.2301,
        "meta_arg_of_pericenter": 198.1775,
        "meta_mean_anomaly": 161.9042,
        "meta_ephemeris_type": 0,
        "meta_classification_type": "U",
        "meta_norad_cat_id": 66650,
        "meta_element_set_no": 999,
        "meta_rev_at_epoch": 457,
        "meta_bstar": 0.00018294867,
        "meta_mean_motion_dot": 1.787e-05,
        "meta_mean_motion_ddot": 0,
        "tle_line1": "1 66650U 25274A   25361.30873880  .00001787  00000+0  18295-3 0  9997",
        "tle_line2": "2 66650  97.7406 288.2301 0011275 198.1775 161.9042 14.91711336  4571"
      },
      "geometry": {
        "type": "Point",
        "coordinates": [
          -71.24730550184857,
          -1.4229074716134869
        ]
      }
    },
    {
      "type": "Feature",
      "properties": {
        "norad_id": 66651,
        "name": "2025-274B",
        "group": "last-30-days",
        "lat": 12.20626382412757,
        "lon": -73.12258156147561,
        "alt_km": 601.293340843783,
        "timestamp": "2025-12-27T15:27:09.829080+00:00",
        "meta_object_name": "2025-274B",
        "meta_object_id": "2025-274B",
        "meta_epoch": "2025-12-27T07:20:56.985504",
        "meta_mean_motion": 14.91906236,
        "meta_eccentricity": 0.0011476,
        "meta_inclination": 97.7398,
        "meta_ra_of_asc_node": 288.2318,
        "meta_arg_of_pericenter": 196.5447,
        "meta_mean_anomaly": 163.5399,
        "meta_ephemeris_type": 0,
        "meta_classification_type": "U",
        "meta_norad_cat_id": 66651,
        "meta_element_set_no": 999,
        "meta_rev_at_epoch": 457,
        "meta_bstar": 0.00038778804,
        "meta_mean_motion_dot": 3.871e-05,
        "meta_mean_motion_ddot": 0,
        "tle_line1": "1 66651U 25274B   25361.30621511  .00003871  00000+0  38779-3 0  9995",
        "tle_line2": "2 66651  97.7398 288.2318 0011476 196.5447 163.5399 14.91906236  4579"
      },
      "geometry": {
        "type": "Point",
        "coordinates": [
          -73.12258156147561,
          12.20626382412757
        ]
      }
    },
    {
      "type": "Feature",
      "properties": {
        "norad_id": 66652,
        "name": "2025-274C",
        "group": "last-30-days",
        "lat": 24.73057397002239,
        "lon": -75.02125131231352,
        "alt_km": 598.7340046634317,
        "timestamp": "2025-12-27T15:27:09.829091+00:00",
        "meta_object_name": "2025-274C",
        "meta_object_id": "2025-274C",
        "meta_epoch": "2025-12-27T07:17:34.697184",
        "meta_mean_motion": 14.9198926,
        "meta_eccentricity": 0.00109849,
        "meta_inclination": 97.7405,
        "meta_ra_of_asc_node": 288.2367,
        "meta_arg_of_pericenter": 203.156,
        "meta_mean_anomaly": 156.9165,
        "meta_ephemeris_type": 0,
        "meta_classification_type": "U",
        "meta_norad_cat_id": 66652,
        "meta_element_set_no": 999,
        "meta_rev_at_epoch": 457,
        "meta_bstar": 0.00032243154,
        "meta_mean_motion_dot": 3.215e-05,
        "meta_mean_motion_ddot": 0,
        "tle_line1": "1 66652U 25274C   25361.30387381  .00003215  00000+0  32243-3 0  9992",
        "tle_line2": "2 66652  97.7405 288.2367 0010984 203.1560 156.9165 14.91989260  4572"
      },
      "geometry": {
        "type": "Point",
        "coordinates": [
          -75.02125131231352,
          24.73057397002239
        ]
      }
    },
    {
      "type": "Feature",
      "properties": {
        "norad_id": 66653,
        "name": "2025-274D",
        "group": "last-30-days",
        "lat": 24.982809479256748,
        "lon": -75.06347550839736,
        "alt_km": 599.3873573547253,
        "timestamp": "2025-12-27T15:27:09.829101+00:00",
        "meta_object_name": "2025-274D",
        "meta_object_id": "2025-274D",
        "meta_epoch": "2025-12-27T07:17:30.231168",
        "meta_mean_motion": 14.91976029,
        "meta_eccentricity": 0.00119792,
        "meta_inclination": 97.7403,
        "meta_ra_of_asc_node": 288.2361,
        "meta_arg_of_pericenter": 199.9827,
        "meta_mean_anomaly": 160.0924,
        "meta_ephemeris_type": 0,
        "meta_classification_type": "U",
        "meta_norad_cat_id": 66653,
        "meta_element_set_no": 999,
        "meta_rev_at_epoch": 457,
        "meta_bstar": 0.00024974181,
        "meta_mean_motion_dot": 2.477e-05,
        "meta_mean_motion_ddot": 0,
        "tle_line1": "1 66653U 25274D   25361.30382212  .00002477  00000+0  24974-3 0  9992",
        "tle_line2": "2 66653  97.7403 288.2361 0011979 199.9827 160.0924 14.91976029  4576"
      },
      "geometry": {
        "type": "Point",
        "coordinates": [
          -75.06347550839736,
          24.982809479256748
        ]
      }
    }
  ]
}